GLOBALSTAR M035         
1 25851U 99037A   25114.56928683 -.00000036  00000+0  10268-2 0  9997
2 25851  51.9929 174.5396 0014011 253.1300 257.3555 11.04538298 90332
GLOBALSTAR M032         
1 25852U 99037B   25114.64859703 -.00000131  00000+0 -20719-2 0  9992
2 25852  52.0000   3.2515 0012711  77.1804 283.0416 11.19061732128798
GLOBALSTAR M051         
1 25853U 99037C   25114.58446566 -.00000078  00000+0 -13837-3 0  9999
2 25853  51.9773 170.2030 0000921 139.1517 220.9363 11.42204619126261
GLOBALSTAR M030         
1 25854U 99037D   25114.77878116 -.00000034  00000+0  87492-3 0  9990
2 25854  51.9908 339.2370 0003076 324.9170  35.1444 11.55105733143872
GLOBALSTAR M048         
1 25872U 99041A   25115.21005830 -.00000049  00000+0  57720-3 0  9997
2 25872  51.9343 101.6756 0013102  92.8144 280.6027 11.33856488118857
GLOBALSTAR M026         
1 25873U 99041B   25114.69596442  .00000023  00000+0  32170-2 0  9995
2 25873  52.0018 292.7800 0002172 155.5074 307.8308 11.06837842142567
GLOBALSTAR M043         
1 25874U 99041C   25114.65424551 -.00000074  00000+0 -16201-3 0  9999
2 25874  51.9391 208.5101 0013739 218.7838 286.0888 11.25692138116841
GLOBALSTAR M028         
1 25875U 99041D   25114.84347572 -.00000067  00000+0  21410-3 0  9997
2 25875  51.9656 352.1272 0062844 316.2836  43.3058 12.50581418183501
